CUTE-1 (CO-55)          
1 27844U 03031E   24366.95551906  .00001393  00000+0  62873-3 0  9997
2 27844  98.6776  11.3005 0008725 293.8546  66.1718 14.23737601115920
ZACUBE-1 (TSHEPISOSAT)  
1 39417U 13066B   24366.85670806  .00012228  00000+0  11367-2 0  9995
2 39417  97.7607 319.2531 0045169 223.8959 135.8669 14.93714349601043
POLYITAN-1              
1 40042U 14033AJ  24366.68931724  .00029943  00000+0  17699-2 0  9992
2 40042  98.0912 340.5614 0010602 175.4266 184.7061 15.11381807572572
AEROCUBE 6A             
1 40045U 14033AM  24366.91004643  .00015572  00000+0  16390-2 0  9992
2 40045  97.6762 173.4310 0046030 351.4054   8.6370 14.88680050567154
UKUBE-1                 
1 40074U 14037F   24366.27689761  .00020086  00000+0  15977-2 0  9993
2 40074  98.3678 309.3963 0003271  94.0291 266.1305 15.00452365568260
PROPCUBE 3              
1 40973U 15058K   24366.81524759  .00016103  00000+0  13049-2 0  9993
2 40973  64.7709 109.3389 0179738 247.7802 110.4157 14.88021740 35390
SNAP-3 JIMI             
1 40975U 15058M   24366.86240945  .00023812  00000+0  17478-2 0  9997
2 40975  64.7690  93.5714 0167748 246.9146 111.4209 14.92817304 34478
PROPCUBE 1 (FLORA)      
1 40976U 15058N   24366.68179718  .00013088  00000+0  11653-2 0  9990
2 40976  64.7751 140.5899 0183224 247.6434 110.5169 14.84288629 37076
HORYU-4                 
1 41340U 16012D   24366.66503626  .00036887  00000+0  13485-2 0  9991
2 41340  30.9996 119.4552 0007399 187.7533 172.2996 15.26864332488241
RAVAN                   
1 41849U 16067B   24365.76589393  .00036295  00000+0  15440-2 0  9996
2 41849  98.0550 196.1972 0011590  76.6148 283.6378 15.22862699445806
CORVUS BC4              
1 43767U 18099K   25001.08152974  .00012672  00000+0  87524-3 0  9994
2 43767  97.4856  54.4393 0010443  37.1114 323.0833 15.05843220332139
MOVE-II                 
1 43780U 18099Y   24366.84912710  .00088600  00000+0  25418-2 0  9995
2 43780  97.4927  70.1175 0004675  14.1524 345.9850 15.35518885333037
M2 PATHFINDER           
1 45727U 20037E   24366.44010124  .00009096  00000+0  73378-3 0  9998
2 45727  97.7772 182.3437 0011662 161.3691 198.7961 15.00051406245483
ROBUSTA-1F (MTCUBE 2)   
1 53109U 22080E   24365.35174012 -.00000003  00000+0  00000+0 0  9995
2 53109  70.1231 123.9128 0008380  45.3679 314.7663  6.42584036 57766
SITRO-AIS 8 (ANOKHIN)   
1 57193U 23091AD  25001.12385952  .00025724  00000+0  13444-2 0  9990
2 57193  97.5843  58.3960 0015486 158.1278 202.0618 15.15759410 83413
SITRO-AIS 10 (BURDAEV)  
1 57199U 23091AK  25001.14978155  .00029003  00000+0  14115-2 0  9991
2 57199  97.5860  59.9996 0011447 142.6001 217.6032 15.18283299 83512
SITRO-AIS 12 (SMIRENNIY)
1 57204U 23091AQ  25001.15634489  .00029821  00000+0  14464-2 0  9993
2 57204  97.5864  60.1755 0011404 137.1670 223.0454 15.18395368 83525
VERONIKA                
1 58261U 23174F   24366.90667179  .00077744  00000+0  20125-2 0  9995
2 58261  97.4380  81.7688 0008048 261.7779  98.2553 15.38743332 63912
SITRO-AIS 51            
1 59062U 24039M   25001.13869467  .00116183  00000+0  19855-2 0  9991
2 59062  97.4100 330.6358 0007600 204.8311 155.2576 15.50845878 47019
GRBBETA                 
1 60237U 24128C   25001.17290052  .00013391  00000+0  10683-2 0  9995
2 60237  61.9938 274.3611 0033663  19.3577 340.8782 15.00156150 26265
